#dP2019  2 17  0  0  0.00000000      96 __u+U ITR00 FIT  IAC
## 2041      0.00000000   900.00000000 58531 0.0000000000000
+   90   C02C05C07C08C09C10C11C12C13C14C16E01E02E03E04E05E07
+        E08E09E11E12E13E14E15E18E19E21E24E25E26E27E30E31E33
+        E36G01G02G03G04G05G06G07G08G09G10G11G12G13G14G15G16
+        G17G18G19G20G21G22G23G24G25G26G27G28G29G30G31G32R01
+        R02R03R04R05R07R08R09R10R11R13R14R15R16R17R18R19R20
+        R21R22R23R24R26  0  0  0  0  0  0  0  0  0  0  0  0
++        12 12  9  9  8  8  8  8  9  8  9  6  6  6  5  6  6
++         6  5  5  5  6  6  6  5  5  6  6  5  6  6  6  6  5
++         6  3  4  3  4  4  4  3  3  4  4  3  4  4  4  4  4
++         3  3  4  4  4  4  4  4  4  7  4  4  4  3  4  4  6
++         5  5  5  5  5  6  6  5  6  5  6  6  6  6  6  5  5
++         5  6  5  6  0  0  0  0  0  0  0  0  0  0  0  0  0
%c M  cc GPS ccc cccc cccc cccc cccc ccccc ccccc ccccc ccccc
%c cc cc ccc ccc cccc cccc cccc cccc ccccc ccccc ccccc ccccc
%f  0.0000000  0.000000000  0.00000000000  0.000000000000000
%f  0.0000000  0.000000000  0.00000000000  0.000000000000000
%i    0    0    0    0      0      0      0      0         0
%i    0    0    0    0      0      0      0      0         0
/*                                                          
/*   RSA / INFORMATION & ANALYSIS CENTER (IAC) OF MCC       
/*   ULTRA-RAPID DETERMINATION                              
/* PCV:IGS14_2038 OL/AL:FES2004  NONE     YN ORB:CoN CLK:CoN
*  2019 02 17  5 15  0.00000000
PC02   4374.565765  41895.050613   -863.602855   -323.599582
PC05  21924.705322  35995.327157   -812.815090    -24.995721
PC07  -9114.488511  35852.308366  20761.080587    142.737219
PC08 -13287.677618  18175.226006 -35576.550885    113.232178
PC09 -11823.948382  31162.254039  25814.319034    538.356208
PC10    615.605940  41134.671146  10238.031960   -500.519814
PC11  27281.001376  -5724.379720     35.052627     -9.605202
PC12  13304.795169  11645.862715 -21497.728881    427.000230
PC13   1060.659867  24609.191790 -34125.536738   -546.397778
PC14  15949.073846   2581.219009  22814.583702    844.165237
PC16 -21618.842842  32157.631148  16415.586799   -226.064008
PE01  -9238.735440 -28077.221082  -1630.466160   -544.190430
PE02   9269.172368  28058.763132   1578.818419     47.898657
PE03    464.956213  21744.644452  20081.167713   -134.470795
PE04 -16566.384015  -6394.511038 -23680.278122   -222.868189
PE05 -16012.529232  24449.207445   4690.822179    106.155730
PE07  23063.346588 -12842.130189  13387.837194   -133.162036
PE08  16557.134522   6092.677681  23766.419815   6402.850654
PE09 -22896.454782  13113.575750 -13425.808213   6525.499225
PE11 -27362.061187   2951.585570 -10867.396082   5719.477656
PE12 -26589.622475  -9934.291045   8370.259911   6186.040203
PE13  27429.101670  -2953.086386  10752.927621    383.084358
PE14  27069.241532     75.011125 -14410.428581   6443.710867
PE15  26839.257832   9556.888080  -8026.603093    919.785928
PE18 -24313.327490  10901.686237    369.336057   5524.047112
PE19   1371.879463 -22625.061363 -19038.850151     -8.336043
PE21   4904.951568 -22309.647778 -18832.853097   -519.935143
PE24 -15923.545064   3853.664444  24640.678890   6229.068518
PE25  -4936.539100  22274.227456  18859.586855   1890.909901
PE26  12186.131058 -13809.706102  23184.087119   4894.590040
PE27  16032.729668  -3407.726954 -24647.664554    527.574922
PE30  17760.050890  17158.459563 -16320.208273   5100.482449
PE31 -17747.218975 -17470.182303  16004.304538    904.605271
PE33 -10517.101692 -16530.171771  22199.237401    847.972447
PE36 -11958.942440  13773.887707 -23296.314311    746.609660
PG01  22633.268464  14211.956978   -820.463140   -164.729517
PG02  -6204.836268 -18276.329176  18927.134182   -141.915582
PG03  12871.783961  13742.931736  18724.136863    183.292494
PG04  24378.112591  -9895.870800   3636.615790    115.382027
PG05  -2742.286501 -26111.009910  -3324.039675      1.092102
PG06   6572.814542 -13461.095649  21976.532195    274.022776
PG07  23352.874572   4271.818329 -12124.835363     31.042591
PG08   9495.904518  11759.627737 -21803.792245   -133.048883
PG09  24029.028348  -6235.955979   9412.498282    457.457432
PG10 -11412.962010  17534.503579 -16194.062676    115.162151
PG11  21917.080655  10609.371926 -10862.843596   -658.974443
PG12 -10609.945915 -16462.059127  17824.040955    267.288502
PG13   -501.034926 -15782.333232 -21468.465541    -74.669283
PG14 -14536.195670  17473.231492  13896.571765    -91.250594
PG15 -13130.122006 -10104.038235 -21066.941027   -327.493153
PG16    779.603950  25885.870986  -4901.251018    -19.738853
PG17  21154.095985 -14963.481666   6009.579582     10.937458
PG18  17031.120934  17690.130050 -10781.950210     26.755340
PG19  15757.640210 -16610.272192  13255.506627   -351.620025
PG20 -14656.931305   8069.480012 -20714.640785    522.285218
PG21 -22124.732241   -279.429829 -13804.970237   -248.664048
PG22  11233.213739  20180.913369  13394.909385   -646.913178
PG23  20042.069041   3090.890996  17671.060287   -196.975686
PG24 -21221.077282 -15471.723003  -5161.121292    -62.264055
PG25 -14697.511279  -3885.695065  21603.861952   -721.547586
PG26      0.000000      0.000000      0.000000    126.591759
PG27  -1580.569147  16788.778651 -20530.986699    -69.207158
PG28  12608.339998 -16037.297588 -16446.591121    764.767861
PG29 -22971.032794   1338.938816  13238.556122    268.730578
PG30  17097.064189  -5797.726165 -19521.333325    -54.035432
PG31  -5700.871296  14285.307928  21621.474697     58.094942
PG32 -18909.896922  16986.445817   7553.622989   -222.901670
PR01  14688.918041 -18527.046899   9553.437812     39.552179
PR02   6286.880135 -22344.307668 -10601.895686    354.729218
PR03  -5552.293475 -11785.015111 -21902.436293     -8.528462
PR04 -14205.272006   6198.154543 -20241.249091    295.492048
PR05 -14380.161121  19715.233661  -7386.676497     22.317889
PR07   5923.428477  11286.386681  22119.770721    -58.067292
PR08  14041.853778  -5437.282737  20640.114602     19.036659
PR09   7342.415515  21936.661236  10830.179255     54.708593
PR10  14889.182590  20170.344974  -4936.267459     42.274575
PR11  15000.008232   6302.650421 -19649.278949    -56.981790
PR13  -6830.318291 -21388.760696 -12128.787312    -20.254920
PR14 -15080.988249 -19969.707951   4935.763233     36.065340
PR15 -15106.557808  -7172.005612  19281.796348     99.974223
PR16  -6474.280681   9923.072204  22548.862652     11.025598
PR17 -16462.546400  -7757.912004  17904.208127    205.195077
PR18 -25287.011570   -669.443483   3039.060588     32.918886
PR19 -20626.404257   6282.951332 -13618.612971    -61.161477
PR20  -2319.094441  10422.423430 -23148.201873   -369.067021
PR21  16911.743614   7506.404631 -17540.517478    -31.733995
PR22  25570.436111   -444.368368   -401.869952     -4.672617
PR23  16783.473187  -8272.107060  17339.614300    210.066102
PR24    461.815417 -10509.780184  23220.553599   -177.271905
PR26  -4626.954026  10435.464444 -22795.881825 999999.999999
EOF
